{
  "type": "FeatureCollection",
  "features": [
    {
      "type": "Feature",
      "properties": {
        "norad_id": 38857,
        "name": "GSAT0103 (GALILEO-FM3)",
        "group": "gnss",
        "lat": -5.38252486793904,
        "lon": 103.13678490651718,
        "alt_km": 23222.800575869416,
        "timestamp": "2025-12-06T11:28:11.305673+00:00",
        "meta_object_name": "GSAT0103 (GALILEO-FM3)",
        "meta_object_id": "2012-055A",
        "meta_epoch": "2025-12-01T05:01:21.613152",
        "meta_mean_motion": 1.70473256,
        "meta_eccentricity": 0.00023005,
        "meta_inclination": 55.6823,
        "meta_ra_of_asc_node": 106.9832,
        "meta_arg_of_pericenter": 267.1494,
        "meta_mean_anomaly": 92.7944,
        "meta_ephemeris_type": 0,
        "meta_classification_type": "U",
        "meta_norad_cat_id": 38857,
        "meta_element_set_no": 999,
        "meta_rev_at_epoch": 8163,
        "meta_bstar": 0,
        "meta_mean_motion_dot": 4.2e-07,
        "meta_mean_motion_ddot": 0,
        "tle_line1": "1 38857U 12055A   25335.20927793  .00000042  00000+0  00000+0 0  9995",
        "tle_line2": "2 38857  55.6823 106.9832 0002300 267.1494  92.7944  1.70473256 81637"
      },
      "geometry": {
        "type": "Point",
        "coordinates": [
          103.13678490651718,
          -5.38252486793904
        ]
      }
    },
    {
      "type": "Feature",
      "properties": {
        "norad_id": 38953,
        "name": "BEIDOU-2 G6 (C02)",
        "group": "gnss",
        "lat": -3.8202796130449466,
        "lon": -28.476738130010975,
        "alt_km": 35760.7227962656,
        "timestamp": "2025-12-06T11:28:11.305685+00:00",
        "meta_object_name": "BEIDOU-2 G6 (C02)",
        "meta_object_id": "2012-059A",
        "meta_epoch": "2025-12-05T22:01:51.844224",
        "meta_mean_motion": 1.00270335,
        "meta_eccentricity": 0.00075063,
        "meta_inclination": 3.931,
        "meta_ra_of_asc_node": 75.5698,
        "meta_arg_of_pericenter": 289.2609,
        "meta_mean_anomaly": 124.6462,
        "meta_ephemeris_type": 0,
        "meta_classification_type": "U",
        "meta_norad_cat_id": 38953,
        "meta_element_set_no": 999,
        "meta_rev_at_epoch": 4797,
        "meta_bstar": 0,
        "meta_mean_motion_dot": -1.68e-06,
        "meta_mean_motion_ddot": 0,
        "tle_line1": "1 38953U 12059A   25339.91796116 -.00000168  00000+0  00000+0 0  9991",
        "tle_line2": "2 38953   3.9310  75.5698 0007506 289.2609 124.6462  1.00270335 47973"
      },
      "geometry": {
        "type": "Point",
        "coordinates": [
          -28.476738130010975,
          -3.8202796130449466
        ]
      }
    },
    {
      "type": "Feature",
      "properties": {
        "norad_id": 38977,
        "name": "LUCH 5B (SDCM/PRN 125)",
        "group": "gnss",
        "lat": 0.09140682838971474,
        "lon": -128.8536327116226,
        "alt_km": 35755.37462579852,
        "timestamp": "2025-12-06T11:28:11.305698+00:00",
        "meta_object_name": "LUCH 5B (SDCM/PRN 125)",
        "meta_object_id": "2012-061A",
        "meta_epoch": "2025-12-05T00:37:38.725824",
        "meta_mean_motion": 1.00268743,
        "meta_eccentricity": 0.00076145,
        "meta_inclination": 10.0636,
        "meta_ra_of_asc_node": 51.7756,
        "meta_arg_of_pericenter": 190.6462,
        "meta_mean_anomaly": 184.6819,
        "meta_ephemeris_type": 0,
        "meta_classification_type": "U",
        "meta_norad_cat_id": 38977,
        "meta_element_set_no": 999,
        "meta_rev_at_epoch": 4766,
        "meta_bstar": 0,
        "meta_mean_motion_dot": -1.33e-06,
        "meta_mean_motion_ddot": 0,
        "tle_line1": "1 38977U 12061A   25339.02614266 -.00000133  00000+0  00000+0 0  9999",
        "tle_line2": "2 38977  10.0636  51.7756 0007614 190.6462 184.6819  1.00268743 47660"
      },
      "geometry": {
        "type": "Point",
        "coordinates": [
          -128.8536327116226,
          0.09140682838971474
        ]
      }
    },
    {
      "type": "Feature",
      "properties": {
        "norad_id": 39155,
        "name": "COSMOS 2485 (747)",
        "group": "gnss",
        "lat": -24.831679864294667,
        "lon": 67.81326411586434,
        "alt_km": 19147.683390355207,
        "timestamp": "2025-12-06T11:28:11.305713+00:00",
        "meta_object_name": "COSMOS 2485 (747)",
        "meta_object_id": "2013-019A",
        "meta_epoch": "2025-12-05T02:32:45.729312",
        "meta_mean_motion": 2.13102875,
        "meta_eccentricity": 0.00246247,
        "meta_inclination": 65.3094,
        "meta_ra_of_asc_node": 80.124,
        "meta_arg_of_pericenter": 229.2984,
        "meta_mean_anomaly": 130.4888,
        "meta_ephemeris_type": 0,
        "meta_classification_type": "U",
        "meta_norad_cat_id": 39155,
        "meta_element_set_no": 999,
        "meta_rev_at_epoch": 9814,
        "meta_bstar": 0,
        "meta_mean_motion_dot": -2.1e-07,
        "meta_mean_motion_ddot": 0,
        "tle_line1": "1 39155U 13019A   25339.10608483 -.00000021  00000+0  00000+0 0  9991",
        "tle_line2": "2 39155  65.3094  80.1240 0024624 229.2984 130.4888  2.13102875 98144"
      },
      "geometry": {
        "type": "Point",
        "coordinates": [
          67.81326411586434,
          -24.831679864294667
        ]
      }
    },
    {
      "type": "Feature",
      "properties": {
        "norad_id": 39166,
        "name": "GPS BIIF-4  (PRN 27)",
        "group": "gnss",
        "lat": 0.9949514702342268,
        "lon": 96.09918152717816,
        "alt_km": 20414.306340323525,
        "timestamp": "2025-12-06T11:28:11.305741+00:00",
        "meta_object_name": "GPS BIIF-4  (PRN 27)",
        "meta_object_id": "2013-023A",
        "meta_epoch": "2025-12-02T17:50:49.750368",
        "meta_mean_motion": 2.00565046,
        "meta_eccentricity": 0.0137297,
        "meta_inclination": 54.6608,
        "meta_ra_of_asc_node": 276.9746,
        "meta_arg_of_pericenter": 48.5033,
        "meta_mean_anomaly": 312.6627,
        "meta_ephemeris_type": 0,
        "meta_classification_type": "U",
        "meta_norad_cat_id": 39166,
        "meta_element_set_no": 999,
        "meta_rev_at_epoch": 9194,
        "meta_bstar": 0,
        "meta_mean_motion_dot": -3.8e-07,
        "meta_mean_motion_ddot": 0,
        "tle_line1": "1 39166U 13023A   25336.74363137 -.00000038  00000+0  00000+0 0  9997",
        "tle_line2": "2 39166  54.6608 276.9746 0137297  48.5033 312.6627  2.00565046 91947"
      },
      "geometry": {
        "type": "Point",
        "coordinates": [
          96.09918152717816,
          0.9949514702342268
        ]
      }
    },
    {
      "type": "Feature",
      "properties": {
        "norad_id": 39199,
        "name": "IRNSS-1A",
        "group": "gnss",
        "lat": -28.788448884907247,
        "lon": -62.52477442775487,
        "alt_km": 35729.52851967581,
        "timestamp": "2025-12-06T11:28:11.305753+00:00",
        "meta_object_name": "IRNSS-1A",
        "meta_object_id": "2013-034A",
        "meta_epoch": "2025-12-02T19:49:26.431104",
        "meta_mean_motion": 1.00279053,
        "meta_eccentricity": 0.00216608,
        "meta_inclination": 35.2852,
        "meta_ra_of_asc_node": 66.6964,
        "meta_arg_of_pericenter": 185.4059,
        "meta_mean_anomaly": 172.3398,
        "meta_ephemeris_type": 0,
        "meta_classification_type": "U",
        "meta_norad_cat_id": 39199,
        "meta_element_set_no": 999,
        "meta_rev_at_epoch": 4539,
        "meta_bstar": 0,
        "meta_mean_motion_dot": 6.5e-07,
        "meta_mean_motion_ddot": 0,
        "tle_line1": "1 39199U 13034A   25336.82600036  .00000065  00000+0  00000+0 0  9995",
        "tle_line2": "2 39199  35.2852  66.6964 0021660 185.4059 172.3398  1.00279053 45393"
      },
      "geometry": {
        "type": "Point",
        "coordinates": [
          -62.52477442775487,
          -28.788448884907247
        ]
      }
    },
    {
      "type": "Feature",
      "properties": {
        "norad_id": 39533,
        "name": "GPS BIIF-5  (PRN 30)",
        "group": "gnss",
        "lat": 0.6676715089476456,
        "lon": -23.319576049677085,
        "alt_km": 20038.2937852979,
        "timestamp": "2025-12-06T11:28:11.305766+00:00",
        "meta_object_name": "GPS BIIF-5  (PRN 30)",
        "meta_object_id": "2014-008A",
        "meta_epoch": "2025-12-05T17:30:27.207648",
        "meta_mean_motion": 2.00573953,
        "meta_eccentricity": 0.00790348,
        "meta_inclination": 53.63,
        "meta_ra_of_asc_node": 157.2106,
        "meta_arg_of_pericenter": 226.4047,
        "meta_mean_anomaly": 132.9556,
        "meta_ephemeris_type": 0,
        "meta_classification_type": "U",
        "meta_norad_cat_id": 39533,
        "meta_element_set_no": 999,
        "meta_rev_at_epoch": 8580,
        "meta_bstar": 0,
        "meta_mean_motion_dot": 6.8e-07,
        "meta_mean_motion_ddot": 0,
        "tle_line1": "1 39533U 14008A   25339.72948157  .00000068  00000+0  00000+0 0  9993",
        "tle_line2": "2 39533  53.6300 157.2106 0079034 226.4047 132.9556  2.00573953 85808"
      },
      "geometry": {
        "type": "Point",
        "coordinates": [
          -23.319576049677085,
          0.6676715089476456
        ]
      }
    }
  ]
}